[{"OBJECT_NAME":"OBJECT F","OBJECT_ID":"2023-072F","EPOCH":"2026-03-09T23:31:37.259904","MEAN_MOTION":15.29470958,"ECCENTRICITY":0.00062878,"INCLINATION":97.5173,"RA_OF_ASC_NODE":265.798,"ARG_OF_PERICENTER":19.0017,"MEAN_ANOMALY":341.1456,"EPHEMERIS_TYPE":0,"CLASSIFICATION_TYPE":"U","NORAD_CAT_ID":56748,"ELEMENT_SET_NO":999,"REV_AT_EPOCH":15460,"BSTAR":0.00043416252,"MEAN_MOTION_DOT":0.00012341,"MEAN_MOTION_DDOT":0},{"OBJECT_NAME":"STARLINK-36442","OBJECT_ID":"2026-005K","EPOCH":"2026-03-09T12:30:06.687072","MEAN_MOTION":15.27594216,"ECCENTRICITY":0.00010969,"INCLINATION":43.0005,"RA_OF_ASC_NODE":238.6778,"ARG_OF_PERICENTER":293.6702,"MEAN_ANOMALY":66.4034,"EPHEMERIS_TYPE":0,"CLASSIFICATION_TYPE":"U","NORAD_CAT_ID":67413,"ELEMENT_SET_NO":999,"REV_AT_EPOCH":867,"BSTAR":0.0013003564,"MEAN_MOTION_DOT":0.0003571,"MEAN_MOTION_DDOT":0}]
